STARLINK-31858          
1 59658U 24084E   26085.60742837  .00003856  00000+0  14964-3 0  9997
2 59658  43.0036 305.9862 0001513 258.1199 101.9483 15.27565517106961
STARLINK-31881          
1 59659U 24084F   26084.94633589 -.00001735  00000+0 -53540-4 0  9997
2 59659  43.0030 306.1659 0001502 271.6385  88.4295 15.27582807106903
STARLINK-31885          
1 59660U 24084G   26085.63104602  .00000597  00000+0  31210-4 0  9998
2 59660  43.0006 302.7036 0001035 281.6512  78.4223 15.27569623107006
STARLINK-31880          
1 59661U 24084H   26085.61690395  .00002536  00000+0  10166-3 0  9997
2 59661  43.0010 302.6002 0001600 268.6321  91.4348 15.27578598107009
STARLINK-31886          
1 59662U 24084J   26085.31262255  .00006776  00000+0  25576-3 0  9996
2 59662  43.0016 308.0722 0000934 274.4381  85.6364 15.27549511106910
STARLINK-31909          
1 59663U 24084K   26085.33559959  .00001079  00000+0  48725-4 0  9992
2 59663  43.0013 307.4235 0001379 253.5944 106.4756 15.27591579106926
STARLINK-31910          
1 59664U 24084L   26084.95741452 -.00001538  00000+0 -46363-4 0  9999
2 59664  43.0024 309.7027 0001138 247.5298 112.5433 15.27585541106866
STARLINK-31902          
1 59666U 24084N   26085.58187352  .00000822  00000+0  39378-4 0  9995
2 59666  43.0011 306.6532 0000661 281.6966  78.3811 15.27579344106955
STARLINK-31913          
1 59667U 24084P   26085.61305010  .00000882  00000+0  41588-4 0  9995
2 59667  43.0010 302.5668 0001261 264.4918  95.5790 15.27575713107003
STARLINK-31866          
1 59668U 24084Q   26085.59297237 -.00000241  00000+0  76657-6 0  9991
2 59668  43.0027 298.9378 0001030 270.0127  90.0607 15.27577186107044
STARLINK-31917          
1 59669U 24084R   26085.30235103 -.00002745  00000+0 -90362-4 0  9994
2 59669  42.9994 307.9858 0001050 272.3304  87.7428 15.27548599106919
STARLINK-31860          
1 59670U 24084S   26085.30024190 -.00014511  00000+0 -51808-3 0  9993
2 59670  43.0036 304.5152 0001810 273.4944  86.5701 15.27625141106938
STARLINK-31854          
1 59671U 24084T   26084.92943207  .00000786  00000+0  38080-4 0  9995
2 59671  43.0018 277.0639 0001615 276.6011  83.4656 15.27585581107216
STARLINK-31842          
1 59672U 24084U   26085.30796277 -.00002047  00000+0 -64853-4 0  9993
2 59672  43.0032 304.5729 0002172 272.9732  87.0871 15.27579718106951
STARLINK-31871          
1 59673U 24084V   26084.90231326 -.00001601  00000+0 -48651-4 0  9991
2 59673  43.0032 310.1448 0001811 274.1892  85.8753 15.27577516106851
STARLINK-31875          
1 59674U 24084W   26085.61947770 -.00000224  00000+0  14008-5 0  9997
2 59674  43.0030 302.6144 0001538 265.1550  94.9126 15.27587068107002
