[{"OBJECT_NAME":"STARLINK-31858","OBJECT_ID":"2024-084E","EPOCH":"2026-03-26T14:34:41.811168","MEAN_MOTION":15.27565517,"ECCENTRICITY":0.0001513,"INCLINATION":43.0036,"RA_OF_ASC_NODE":305.9862,"ARG_OF_PERICENTER":258.1199,"MEAN_ANOMALY":101.9483,"EPHEMERIS_TYPE":0,"CLASSIFICATION_TYPE":"U","NORAD_CAT_ID":59658,"ELEMENT_SET_NO":999,"REV_AT_EPOCH":10696,"BSTAR":0.00014964,"MEAN_MOTION_DOT":3.856e-5,"MEAN_MOTION_DDOT":0},{"OBJECT_NAME":"STARLINK-31881","OBJECT_ID":"2024-084F","EPOCH":"2026-03-25T22:42:43.420896","MEAN_MOTION":15.27582807,"ECCENTRICITY":0.00015022,"INCLINATION":43.003,"RA_OF_ASC_NODE":306.1659,"ARG_OF_PERICENTER":271.6385,"MEAN_ANOMALY":88.4295,"EPHEMERIS_TYPE":0,"CLASSIFICATION_TYPE":"U","NORAD_CAT_ID":59659,"ELEMENT_SET_NO":999,"REV_AT_EPOCH":10690,"BSTAR":-5.3540483e-5,"MEAN_MOTION_DOT":-1.735e-5,"MEAN_MOTION_DDOT":0},{"OBJECT_NAME":"STARLINK-31885","OBJECT_ID":"2024-084G","EPOCH":"2026-03-26T15:08:42.376128","MEAN_MOTION":15.27569623,"ECCENTRICITY":0.0001035,"INCLINATION":43.0006,"RA_OF_ASC_NODE":302.7036,"ARG_OF_PERICENTER":281.6512,"MEAN_ANOMALY":78.4223,"EPHEMERIS_TYPE":0,"CLASSIFICATION_TYPE":"U","NORAD_CAT_ID":59660,"ELEMENT_SET_NO":999,"REV_AT_EPOCH":10700,"BSTAR":3.121e-5,"MEAN_MOTION_DOT":5.97e-6,"MEAN_MOTION_DDOT":0},{"OBJECT_NAME":"STARLINK-31880","OBJECT_ID":"2024-084H","EPOCH":"2026-03-26T14:48:20.501280","MEAN_MOTION":15.27578598,"ECCENTRICITY":0.00016,"INCLINATION":43.001,"RA_OF_ASC_NODE":302.6002,"ARG_OF_PERICENTER":268.6321,"MEAN_ANOMALY":91.4348,"EPHEMERIS_TYPE":0,"CLASSIFICATION_TYPE":"U","NORAD_CAT_ID":59661,"ELEMENT_SET_NO":999,"REV_AT_EPOCH":10700,"BSTAR":0.00010166,"MEAN_MOTION_DOT":2.536e-5,"MEAN_MOTION_DDOT":0},{"OBJECT_NAME":"STARLINK-31886","OBJECT_ID":"2024-084J","EPOCH":"2026-03-26T07:30:10.588320","MEAN_MOTION":15.27549511,"ECCENTRICITY":9.34e-5,"INCLINATION":43.0016,"RA_OF_ASC_NODE":308.0722,"ARG_OF_PERICENTER":274.4381,"MEAN_ANOMALY":85.6364,"EPHEMERIS_TYPE":0,"CLASSIFICATION_TYPE":"U","NORAD_CAT_ID":59662,"ELEMENT_SET_NO":999,"REV_AT_EPOCH":10691,"BSTAR":0.00025576,"MEAN_MOTION_DOT":6.776e-5,"MEAN_MOTION_DDOT":0},{"OBJECT_NAME":"STARLINK-31909","OBJECT_ID":"2024-084K","EPOCH":"2026-03-26T08:03:15.804576","MEAN_MOTION":15.27591579,"ECCENTRICITY":0.0001379,"INCLINATION":43.0013,"RA_OF_ASC_NODE":307.4235,"ARG_OF_PERICENTER":253.5944,"MEAN_ANOMALY":106.4756,"EPHEMERIS_TYPE":0,"CLASSIFICATION_TYPE":"U","NORAD_CAT_ID":59663,"ELEMENT_SET_NO":999,"REV_AT_EPOCH":10692,"BSTAR":4.8725e-5,"MEAN_MOTION_DOT":1.079e-5,"MEAN_MOTION_DDOT":0},{"OBJECT_NAME":"STARLINK-31910","OBJECT_ID":"2024-084L","EPOCH":"2026-03-25T22:58:40.614528","MEAN_MOTION":15.27585541,"ECCENTRICITY":0.00011389,"INCLINATION":43.0024,"RA_OF_ASC_NODE":309.7027,"ARG_OF_PERICENTER":247.5298,"MEAN_ANOMALY":112.5433,"EPHEMERIS_TYPE":0,"CLASSIFICATION_TYPE":"U","NORAD_CAT_ID":59664,"ELEMENT_SET_NO":999,"REV_AT_EPOCH":10686,"BSTAR":-4.6363136e-5,"MEAN_MOTION_DOT":-1.538e-5,"MEAN_MOTION_DDOT":0},{"OBJECT_NAME":"STARLINK-31902","OBJECT_ID":"2024-084N","EPOCH":"2026-03-26T13:57:53.872128","MEAN_MOTION":15.27579344,"ECCENTRICITY":6.61e-5,"INCLINATION":43.0011,"RA_OF_ASC_NODE":306.6532,"ARG_OF_PERICENTER":281.6966,"MEAN_ANOMALY":78.3811,"EPHEMERIS_TYPE":0,"CLASSIFICATION_TYPE":"U","NORAD_CAT_ID":59666,"ELEMENT_SET_NO":999,"REV_AT_EPOCH":10695,"BSTAR":3.9378e-5,"MEAN_MOTION_DOT":8.22e-6,"MEAN_MOTION_DDOT":0},{"OBJECT_NAME":"STARLINK-31913","OBJECT_ID":"2024-084P","EPOCH":"2026-03-26T14:42:47.528640","MEAN_MOTION":15.27575713,"ECCENTRICITY":0.0001261,"INCLINATION":43.001,"RA_OF_ASC_NODE":302.5668,"ARG_OF_PERICENTER":264.4918,"MEAN_ANOMALY":95.579,"EPHEMERIS_TYPE":0,"CLASSIFICATION_TYPE":"U","NORAD_CAT_ID":59667,"ELEMENT_SET_NO":999,"REV_AT_EPOCH":10700,"BSTAR":4.1588e-5,"MEAN_MOTION_DOT":8.82e-6,"MEAN_MOTION_DDOT":0},{"OBJECT_NAME":"STARLINK-31866","OBJECT_ID":"2024-084Q","EPOCH":"2026-03-26T14:13:52.812768","MEAN_MOTION":15.27577186,"ECCENTRICITY":0.000103,"INCLINATION":43.0027,"RA_OF_ASC_NODE":298.9378,"ARG_OF_PERICENTER":270.0127,"MEAN_ANOMALY":90.0607,"EPHEMERIS_TYPE":0,"CLASSIFICATION_TYPE":"U","NORAD_CAT_ID":59668,"ELEMENT_SET_NO":999,"REV_AT_EPOCH":10704,"BSTAR":7.6657e-7,"MEAN_MOTION_DOT":-2.41e-6,"MEAN_MOTION_DDOT":0},{"OBJECT_NAME":"STARLINK-31917","OBJECT_ID":"2024-084R","EPOCH":"2026-03-26T07:15:23.128992","MEAN_MOTION":15.27548599,"ECCENTRICITY":0.000105,"INCLINATION":42.9994,"RA_OF_ASC_NODE":307.9858,"ARG_OF_PERICENTER":272.3304,"MEAN_ANOMALY":87.7428,"EPHEMERIS_TYPE":0,"CLASSIFICATION_TYPE":"U","NORAD_CAT_ID":59669,"ELEMENT_SET_NO":999,"REV_AT_EPOCH":10691,"BSTAR":-9.0362e-5,"MEAN_MOTION_DOT":-2.745e-5,"MEAN_MOTION_DDOT":0},{"OBJECT_NAME":"STARLINK-31860","OBJECT_ID":"2024-084S","EPOCH":"2026-03-26T07:12:20.900160","MEAN_MOTION":15.27625141,"ECCENTRICITY":0.000181,"INCLINATION":43.0036,"RA_OF_ASC_NODE":304.5152,"ARG_OF_PERICENTER":273.4944,"MEAN_ANOMALY":86.5701,"EPHEMERIS_TYPE":0,"CLASSIFICATION_TYPE":"U","NORAD_CAT_ID":59670,"ELEMENT_SET_NO":999,"REV_AT_EPOCH":10693,"BSTAR":-0.00051808,"MEAN_MOTION_DOT":-0.00014511,"MEAN_MOTION_DDOT":0},{"OBJECT_NAME":"STARLINK-31854","OBJECT_ID":"2024-084T","EPOCH":"2026-03-25T22:18:22.930848","MEAN_MOTION":15.27585581,"ECCENTRICITY":0.0001615,"INCLINATION":43.0018,"RA_OF_ASC_NODE":277.0639,"ARG_OF_PERICENTER":276.6011,"MEAN_ANOMALY":83.4656,"EPHEMERIS_TYPE":0,"CLASSIFICATION_TYPE":"U","NORAD_CAT_ID":59671,"ELEMENT_SET_NO":999,"REV_AT_EPOCH":10721,"BSTAR":3.808e-5,"MEAN_MOTION_DOT":7.86e-6,"MEAN_MOTION_DDOT":0},{"OBJECT_NAME":"STARLINK-31842","OBJECT_ID":"2024-084U","EPOCH":"2026-03-26T07:23:27.983328","MEAN_MOTION":15.27579718,"ECCENTRICITY":0.0002172,"INCLINATION":43.0032,"RA_OF_ASC_NODE":304.5729,"ARG_OF_PERICENTER":272.9732,"MEAN_ANOMALY":87.0871,"EPHEMERIS_TYPE":0,"CLASSIFICATION_TYPE":"U","NORAD_CAT_ID":59672,"ELEMENT_SET_NO":999,"REV_AT_EPOCH":10695,"BSTAR":-6.4853e-5,"MEAN_MOTION_DOT":-2.047e-5,"MEAN_MOTION_DDOT":0},{"OBJECT_NAME":"STARLINK-31871","OBJECT_ID":"2024-084V","EPOCH":"2026-03-25T21:39:19.865664","MEAN_MOTION":15.27577516,"ECCENTRICITY":0.0001811,"INCLINATION":43.0032,"RA_OF_ASC_NODE":310.1448,"ARG_OF_PERICENTER":274.1892,"MEAN_ANOMALY":85.8753,"EPHEMERIS_TYPE":0,"CLASSIFICATION_TYPE":"U","NORAD_CAT_ID":59673,"ELEMENT_SET_NO":999,"REV_AT_EPOCH":10685,"BSTAR":-4.8651e-5,"MEAN_MOTION_DOT":-1.601e-5,"MEAN_MOTION_DDOT":0},{"OBJECT_NAME":"STARLINK-31875","OBJECT_ID":"2024-084W","EPOCH":"2026-03-26T14:52:02.873280","MEAN_MOTION":15.27587068,"ECCENTRICITY":0.0001538,"INCLINATION":43.003,"RA_OF_ASC_NODE":302.6144,"ARG_OF_PERICENTER":265.155,"MEAN_ANOMALY":94.9126,"EPHEMERIS_TYPE":0,"CLASSIFICATION_TYPE":"U","NORAD_CAT_ID":59674,"ELEMENT_SET_NO":999,"REV_AT_EPOCH":10700,"BSTAR":1.4008e-6,"MEAN_MOTION_DOT":-2.24e-6,"MEAN_MOTION_DDOT":0}]
